CCSDS_OMM_VERS = 2.0
CREATION_DATE  = 
ORIGINATOR     = 

OBJECT_NAME    = COSMOS 1933
OBJECT_ID      = 1988-020A
CENTER_NAME    = EARTH
REF_FRAME      = TEME
TIME_SYSTEM    = UTC
MEAN_ELEMENT_THEORY = SGP/SGP4

EPOCH          = 2026-02-22T19:49:06.892608
MEAN_MOTION    = 15.17838157
ECCENTRICITY   = .00027827
INCLINATION    = 82.5102
RA_OF_ASC_NODE = 265.6204
ARG_OF_PERICENTER = 247.2709
MEAN_ANOMALY   = 112.8231

EPHEMERIS_TYPE = 0
CLASSIFICATION_TYPE = U
NORAD_CAT_ID   = 18958
ELEMENT_SET_NO = 999
REV_AT_EPOCH   = 4797
BSTAR          = .18022182E-3
MEAN_MOTION_DOT = .3676E-4
MEAN_MOTION_DDOT = 0

CCSDS_OMM_VERS = 2.0
CREATION_DATE  = 
ORIGINATOR     = 

OBJECT_NAME    = SL-3 R/B
OBJECT_ID      = 1988-032B
CENTER_NAME    = EARTH
REF_FRAME      = TEME
TIME_SYSTEM    = UTC
MEAN_ELEMENT_THEORY = SGP/SGP4

EPOCH          = 2026-02-22T22:02:45.878784
MEAN_MOTION    = 15.19707901
ECCENTRICITY   = .00241895
INCLINATION    = 97.5175
RA_OF_ASC_NODE = 37.2269
ARG_OF_PERICENTER = 287.1345
MEAN_ANOMALY   = 72.7241

EPHEMERIS_TYPE = 0
CLASSIFICATION_TYPE = U
NORAD_CAT_ID   = 19046
ELEMENT_SET_NO = 999
REV_AT_EPOCH   = 4986
BSTAR          = .29272095E-3
MEAN_MOTION_DOT = .6229E-4
MEAN_MOTION_DDOT = 0

CCSDS_OMM_VERS = 2.0
CREATION_DATE  = 
ORIGINATOR     = 

OBJECT_NAME    = SL-16 R/B
OBJECT_ID      = 1988-039B
CENTER_NAME    = EARTH
REF_FRAME      = TEME
TIME_SYSTEM    = UTC
MEAN_ELEMENT_THEORY = SGP/SGP4

EPOCH          = 2026-02-22T13:10:31.438272
MEAN_MOTION    = 14.19613673
ECCENTRICITY   = .0021823
INCLINATION    = 71.0135
RA_OF_ASC_NODE = 100.5657
ARG_OF_PERICENTER = 356.9374
MEAN_ANOMALY   = 3.1614

EPHEMERIS_TYPE = 0
CLASSIFICATION_TYPE = U
NORAD_CAT_ID   = 19120
ELEMENT_SET_NO = 999
REV_AT_EPOCH   = 95623
BSTAR          = -.362E-4
MEAN_MOTION_DOT = -.125E-5
MEAN_MOTION_DDOT = 0

CCSDS_OMM_VERS = 2.0
CREATION_DATE  = 
ORIGINATOR     = 

OBJECT_NAME    = COSMOS 1953
OBJECT_ID      = 1988-050A
CENTER_NAME    = EARTH
REF_FRAME      = TEME
TIME_SYSTEM    = UTC
MEAN_ELEMENT_THEORY = SGP/SGP4

EPOCH          = 2026-02-22T16:45:18.212544
MEAN_MOTION    = 15.28215450
ECCENTRICITY   = .00115285
INCLINATION    = 82.5101
RA_OF_ASC_NODE = 173.3158
ARG_OF_PERICENTER = 172.1397
MEAN_ANOMALY   = 188.0025

EPHEMERIS_TYPE = 0
CLASSIFICATION_TYPE = U
NORAD_CAT_ID   = 19210
ELEMENT_SET_NO = 999
REV_AT_EPOCH   = 3549
BSTAR          = .35220225E-3
MEAN_MOTION_DOT = .9734E-4
MEAN_MOTION_DDOT = 0

CCSDS_OMM_VERS = 2.0
CREATION_DATE  = 
ORIGINATOR     = 

OBJECT_NAME    = SL-8 R/B
OBJECT_ID      = 1988-053B
CENTER_NAME    = EARTH
REF_FRAME      = TEME
TIME_SYSTEM    = UTC
MEAN_ELEMENT_THEORY = SGP/SGP4

EPOCH          = 2026-02-22T17:15:09.911808
MEAN_MOTION    = 14.38906090
ECCENTRICITY   = .00209816
INCLINATION    = 74.0481
RA_OF_ASC_NODE = 140.0601
ARG_OF_PERICENTER = 321.7100
MEAN_ANOMALY   = 152.5156

EPHEMERIS_TYPE = 0
CLASSIFICATION_TYPE = U
NORAD_CAT_ID   = 19257
ELEMENT_SET_NO = 999
REV_AT_EPOCH   = 97444
BSTAR          = .89874168E-4
MEAN_MOTION_DOT = .251E-5
MEAN_MOTION_DDOT = 0

CCSDS_OMM_VERS = 2.0
CREATION_DATE  = 
ORIGINATOR     = 

OBJECT_NAME    = COSMOS 1975
OBJECT_ID      = 1988-093A
CENTER_NAME    = EARTH
REF_FRAME      = TEME
TIME_SYSTEM    = UTC
MEAN_ELEMENT_THEORY = SGP/SGP4

EPOCH          = 2026-02-22T22:10:42.986496
MEAN_MOTION    = 15.27805594
ECCENTRICITY   = .00108543
INCLINATION    = 82.5206
RA_OF_ASC_NODE = 132.5020
ARG_OF_PERICENTER = 216.4120
MEAN_ANOMALY   = 143.6382

EPHEMERIS_TYPE = 0
CLASSIFICATION_TYPE = U
NORAD_CAT_ID   = 19573
ELEMENT_SET_NO = 999
REV_AT_EPOCH   = 1715
BSTAR          = .30868984E-3
MEAN_MOTION_DOT = .8427E-4
MEAN_MOTION_DDOT = 0

CCSDS_OMM_VERS = 2.0
CREATION_DATE  = 
ORIGINATOR     = 

OBJECT_NAME    = SL-14 R/B
OBJECT_ID      = 1988-093B
CENTER_NAME    = EARTH
REF_FRAME      = TEME
TIME_SYSTEM    = UTC
MEAN_ELEMENT_THEORY = SGP/SGP4

EPOCH          = 2026-02-22T23:22:03.272736
MEAN_MOTION    = 14.85636916
ECCENTRICITY   = .00223281
INCLINATION    = 82.5282
RA_OF_ASC_NODE = 55.8611
ARG_OF_PERICENTER = 87.1009
MEAN_ANOMALY   = 303.2080

EPHEMERIS_TYPE = 0
CLASSIFICATION_TYPE = U
NORAD_CAT_ID   = 19574
ELEMENT_SET_NO = 999
REV_AT_EPOCH   = 99885
BSTAR          = .54269289E-4
MEAN_MOTION_DOT = .497E-5
MEAN_MOTION_DDOT = 0

CCSDS_OMM_VERS = 2.0
CREATION_DATE  = 
ORIGINATOR     = 

OBJECT_NAME    = SL-16 R/B
OBJECT_ID      = 1988-102B
CENTER_NAME    = EARTH
REF_FRAME      = TEME
TIME_SYSTEM    = UTC
MEAN_ELEMENT_THEORY = SGP/SGP4

EPOCH          = 2026-02-22T17:14:29.667552
MEAN_MOTION    = 14.16151605
ECCENTRICITY   = .00131229
INCLINATION    = 70.9999
RA_OF_ASC_NODE = 182.9946
ARG_OF_PERICENTER = 24.5316
MEAN_ANOMALY   = 335.6429

EPHEMERIS_TYPE = 0
CLASSIFICATION_TYPE = U
NORAD_CAT_ID   = 19650
ELEMENT_SET_NO = 999
REV_AT_EPOCH   = 92477
BSTAR          = -.67938276E-4
MEAN_MOTION_DOT = -.182E-5
MEAN_MOTION_DDOT = 0

CCSDS_OMM_VERS = 2.0
CREATION_DATE  = 
ORIGINATOR     = 

OBJECT_NAME    = INTERCOSMOS 24
OBJECT_ID      = 1989-080A
CENTER_NAME    = EARTH
REF_FRAME      = TEME
TIME_SYSTEM    = UTC
MEAN_ELEMENT_THEORY = SGP/SGP4

EPOCH          = 2026-02-22T20:52:51.383424
MEAN_MOTION    = 12.59533764
ECCENTRICITY   = .11871827
INCLINATION    = 82.6046
RA_OF_ASC_NODE = 114.0530
ARG_OF_PERICENTER = 327.2487
MEAN_ANOMALY   = 26.0071

EPHEMERIS_TYPE = 0
CLASSIFICATION_TYPE = U
NORAD_CAT_ID   = 20261
ELEMENT_SET_NO = 999
REV_AT_EPOCH   = 66493
BSTAR          = .18846651E-3
MEAN_MOTION_DOT = .64E-5
MEAN_MOTION_DDOT = 0

CCSDS_OMM_VERS = 2.0
CREATION_DATE  = 
ORIGINATOR     = 

OBJECT_NAME    = SL-14 R/B
OBJECT_ID      = 1989-080C
CENTER_NAME    = EARTH
REF_FRAME      = TEME
TIME_SYSTEM    = UTC
MEAN_ELEMENT_THEORY = SGP/SGP4

EPOCH          = 2026-02-22T06:31:49.384704
MEAN_MOTION    = 12.50471818
ECCENTRICITY   = .12299242
INCLINATION    = 82.5964
RA_OF_ASC_NODE = 183.0814
ARG_OF_PERICENTER = 219.9910
MEAN_ANOMALY   = 130.4044

EPHEMERIS_TYPE = 0
CLASSIFICATION_TYPE = U
NORAD_CAT_ID   = 20262
ELEMENT_SET_NO = 999
REV_AT_EPOCH   = 65822
BSTAR          = .17416007E-3
MEAN_MOTION_DOT = .582E-5
MEAN_MOTION_DDOT = 0

CCSDS_OMM_VERS = 2.0
CREATION_DATE  = 
ORIGINATOR     = 

OBJECT_NAME    = DELTA 1 R/B
OBJECT_ID      = 1989-089B
CENTER_NAME    = EARTH
REF_FRAME      = TEME
TIME_SYSTEM    = UTC
MEAN_ELEMENT_THEORY = SGP/SGP4

EPOCH          = 2026-02-22T14:00:53.188416
MEAN_MOTION    = 14.50649295
ECCENTRICITY   = .0069364
INCLINATION    = 97.0714
RA_OF_ASC_NODE = 263.4240
ARG_OF_PERICENTER = 169.2190
MEAN_ANOMALY   = 191.0514

EPHEMERIS_TYPE = 0
CLASSIFICATION_TYPE = U
NORAD_CAT_ID   = 20323
ELEMENT_SET_NO = 999
REV_AT_EPOCH   = 89354
BSTAR          = .84273E-4
MEAN_MOTION_DOT = .306E-5
MEAN_MOTION_DDOT = 0

CCSDS_OMM_VERS = 2.0
CREATION_DATE  = 
ORIGINATOR     = 

OBJECT_NAME    = ARIANE 40 R/B
OBJECT_ID      = 1990-005H
CENTER_NAME    = EARTH
REF_FRAME      = TEME
TIME_SYSTEM    = UTC
MEAN_ELEMENT_THEORY = SGP/SGP4

EPOCH          = 2026-02-22T20:56:57.530112
MEAN_MOTION    = 14.39859676
ECCENTRICITY   = .00090714
INCLINATION    = 98.3118
RA_OF_ASC_NODE = 114.9735
ARG_OF_PERICENTER = 246.0239
MEAN_ANOMALY   = 114.0001

EPHEMERIS_TYPE = 0
CLASSIFICATION_TYPE = U
NORAD_CAT_ID   = 20443
ELEMENT_SET_NO = 999
REV_AT_EPOCH   = 89067
BSTAR          = .91827325E-4
MEAN_MOTION_DOT = .246E-5
MEAN_MOTION_DDOT = 0

