COSMOS 1933             
1 18958U 88020A   26053.82577422  .00003676  00000+0  18022-3 0  9999
2 18958  82.5102 265.6204 0002782 247.2709 112.8231 15.17838157 47977
SL-3 R/B                
1 19046U 88032B   26053.91858656  .00006229  00000+0  29272-3 0  9998
2 19046  97.5175  37.2269 0024189 287.1345  72.7241 15.19707901 49869
SL-16 R/B               
1 19120U 88039B   26053.54897498 -.00000125  00000+0 -36200-4 0  9995
2 19120  71.0135 100.5657 0021823 356.9374   3.1614 14.19613673956230
COSMOS 1953             
1 19210U 88050A   26053.69812746  .00009734  00000+0  35220-3 0  9990
2 19210  82.5101 173.3158 0011528 172.1397 188.0025 15.28215450 35495
SL-8 R/B                
1 19257U 88053B   26053.71886472  .00000251  00000+0  89874-4 0  9994
2 19257  74.0481 140.0601 0020981 321.7100 152.5156 14.38906090974449
COSMOS 1975             
1 19573U 88093A   26053.92410864  .00008427  00000+0  30869-3 0  9992
2 19573  82.5206 132.5020 0010854 216.4120 143.6382 15.27805594 17154
SL-14 R/B               
1 19574U 88093B   26053.97364899  .00000497  00000+0  54269-4 0  9994
2 19574  82.5282  55.8611 0022328  87.1009 303.2080 14.85636916998857
SL-16 R/B               
1 19650U 88102B   26053.71839893 -.00000182  00000+0 -67938-4 0  9993
2 19650  70.9999 182.9946 0013122  24.5316 335.6429 14.16151605924776
INTERCOSMOS 24          
1 20261U 89080A   26053.87003916  .00000640  00000+0  18847-3 0  9996
2 20261  82.6046 114.0530 1187182 327.2487  26.0071 12.59533764664933
SL-14 R/B               
1 20262U 89080C   26053.27209936  .00000582  00000+0  17416-3 0  9997
2 20262  82.5964 183.0814 1229924 219.9910 130.4044 12.50471818658229
DELTA 1 R/B             
1 20323U 89089B   26053.58394894  .00000306  00000+0  84273-4 0  9996
2 20323  97.0714 263.4240 0069364 169.2190 191.0514 14.50649295893542
ARIANE 40 R/B           
1 20443U 90005H   26053.87288808  .00000246  00000+0  91827-4 0  9994
2 20443  98.3118 114.9735 0009071 246.0239 114.0001 14.39859676890673
